"{\n    \"CCSDS_OMM_VERS\": \"2.0\",\n    \"COMMENT\": \"GENERATED VIA SPACE-TRACK.ORG API\",\n    \"CREATION_DATE\": \"2025-08-31T17:37:22\",\n    \"ORIGINATOR\": \"18 SPCS\",\n    \"OBJECT_NAME\": \"CYGFM07\",\n    \"OBJECT_ID\": \"2016-078G\",\n    \"CENTER_NAME\": \"EARTH\",\n    \"REF_FRAME\": \"TEME\",\n    \"TIME_SYSTEM\": \"UTC\",\n    \"MEAN_ELEMENT_THEORY\": \"SGP4\",\n    \"EPOCH\": \"2025-08-31T13:13:47.110080\",\n    \"MEAN_MOTION\": \"15.447094289\",\n    \"ECCENTRICITY\": \"0.00084294584\",\n    \"INCLINATION\": \"34.949421\",\n    \"RA_OF_ASC_NODE\": \"335.17637\",\n    \"ARG_OF_PERICENTER\": \"330.20771\",\n    \"MEAN_ANOMALY\": \"29.81628\",\n    \"EPHEMERIS_TYPE\": \"0\",\n    \"CLASSIFICATION_TYPE\": \"U\",\n    \"NORAD_CAT_ID\": \"41890\",\n    \"ELEMENT_SET_NO\": \"999\",\n    \"REV_AT_EPOCH\": \"48396\",\n    \"BSTAR\": \"0.00047565789\",\n    \"MEAN_MOTION_DOT\": \"0.00022920367\",\n    \"MEAN_MOTION_DDOT\": \"0\",\n    \"TLE_LINE0\": \"0 CYGFM07\",\n    \"TLE_LINE1\": \"1 41890U 16078G   25243.55123970  .00022920  00000-0  47566-3 0  9998\",\n    \"TLE_LINE2\": \"2 41890  34.9494 335.1764 0008429 330.2077  29.8163 15.44709429483965\",\n    \"SEMIMAJOR_AXIS\": \"6810.369\",\n    \"PERIOD\": \"93.221\",\n    \"APOAPSIS\": \"437.975\",\n    \"PERIAPSIS\": \"426.493\",\n    \"OBJECT_TYPE\": \"PAYLOAD\",\n    \"DECAYED\": \"0\"\n}"